STARLINK-34851          
1 66447U 25259AB  25332.16671295 -.01999701  00000+0 -20040-1 0  9996
2 66447  42.9998 132.7531 0001490 278.5569 179.1108 15.67836960  3829
STARLINK-35355          
1 66448U 25259AC  25332.16671295 -.02015978  00000+0 -20216-1 0  9998
2 66448  42.9995 132.7490 0001586 278.0279 181.5536 15.67847723  3933
STARLINK-34720          
1 66449U 25259AD  25332.16671295 -.02000681  00000+0 -20050-1 0  9990
2 66449  42.9996 132.7435 0001536 279.4252 182.0751 15.67838062  3824
STARLINK-35334          
1 66450U 25259AE  25332.16671295 -.02009874  00000+0 -20150-1 0  9996
2 66450  42.9997 132.7382 0001515 276.3364 187.0802 15.67843896  3930
VIASAT-3 F2             
1 66454U 25261A   25330.74705039 -.00000051  00000+0  00000+0 0  9994
2 66454   5.5832 293.8608 2341324 182.7714 334.4159  2.28187844   288
ATLAS 5 CENTAUR R/B     
1 66455U 25261B   25330.76889782 -.00000052  00000+0  00000+0 0  9996
2 66455   6.1673 293.2138 2329931 183.2713 340.9993  2.28258333   286
STARLINK-35643          
1 66456U 25262A   25332.16671295 -.01374071  00000+0 -80199-2 0  9999
2 66456  42.9980 157.3995 0001520 267.3535 291.7162 15.80043595  3291
STARLINK-35466          
1 66457U 25262B   25332.16671295 -.01383470  00000+0 -81196-2 0  9991
2 66457  42.9982 157.3875 0001652 269.1213 294.7036 15.79940491  3292
STARLINK-35684          
1 66458U 25262C   25332.16671295 -.01360658  00000+0 -79515-2 0  9997
2 66458  42.9984 157.3940 0001555 260.2361 301.1219 15.79990651  3295
STARLINK-35449          
1 66459U 25262D   25332.16671295 -.01407926  00000+0 -83043-2 0  9999
2 66459  42.9981 157.3808 0001674 271.8198 294.5301 15.79879802  3295
STARLINK-35424          
1 66460U 25262E   25332.16671295 -.01423165  00000+0 -84374-2 0  9992
2 66460  42.9985 157.3746 0001704 273.1727 295.8004 15.79797881  3299
STARLINK-35132          
1 66461U 25262F   25332.16671295 -.01459156  00000+0 -87026-2 0  9999
2 66461  42.9983 157.3684 0001731 273.7032 297.7669 15.79738256  3293
